[{"OBJECT_NAME":"ONEWEB-0318","OBJECT_ID":"2021-075AF","EPOCH":"2026-03-19T05:48:22.849632","MEAN_MOTION":13.18686652,"ECCENTRICITY":0.0001559,"INCLINATION":87.9255,"RA_OF_ASC_NODE":353.3241,"ARG_OF_PERICENTER":74.264,"MEAN_ANOMALY":285.8664,"EPHEMERIS_TYPE":0,"CLASSIFICATION_TYPE":"U","NORAD_CAT_ID":49104,"ELEMENT_SET_NO":999,"REV_AT_EPOCH":22531,"BSTAR":8.2831156e-5,"MEAN_MOTION_DOT":4.6e-7,"MEAN_MOTION_DDOT":0},{"OBJECT_NAME":"ONEWEB-0319","OBJECT_ID":"2021-075AG","EPOCH":"2026-03-19T06:21:35.038368","MEAN_MOTION":13.17649658,"ECCENTRICITY":0.00013211,"INCLINATION":87.9165,"RA_OF_ASC_NODE":23.7244,"ARG_OF_PERICENTER":72.736,"MEAN_ANOMALY":287.3917,"EPHEMERIS_TYPE":0,"CLASSIFICATION_TYPE":"U","NORAD_CAT_ID":49105,"ELEMENT_SET_NO":999,"REV_AT_EPOCH":22176,"BSTAR":0.00013633103,"MEAN_MOTION_DOT":6.6e-7,"MEAN_MOTION_DDOT":0},{"OBJECT_NAME":"ONEWEB-0323","OBJECT_ID":"2021-075AH","EPOCH":"2026-03-19T07:25:53.169024","MEAN_MOTION":13.12444526,"ECCENTRICITY":0.00014548,"INCLINATION":87.9018,"RA_OF_ASC_NODE":8.488,"ARG_OF_PERICENTER":58.2239,"MEAN_ANOMALY":301.9031,"EPHEMERIS_TYPE":0,"CLASSIFICATION_TYPE":"U","NORAD_CAT_ID":49106,"ELEMENT_SET_NO":999,"REV_AT_EPOCH":22276,"BSTAR":1.1662742e-5,"MEAN_MOTION_DOT":1.7e-7,"MEAN_MOTION_DDOT":0},{"OBJECT_NAME":"ONEWEB-0329","OBJECT_ID":"2021-075AJ","EPOCH":"2026-03-19T06:33:44.117856","MEAN_MOTION":13.17648649,"ECCENTRICITY":0.00018604,"INCLINATION":87.9165,"RA_OF_ASC_NODE":23.7229,"ARG_OF_PERICENTER":75.3999,"MEAN_ANOMALY":284.7339,"EPHEMERIS_TYPE":0,"CLASSIFICATION_TYPE":"U","NORAD_CAT_ID":49107,"ELEMENT_SET_NO":999,"REV_AT_EPOCH":22174,"BSTAR":0.00017072349,"MEAN_MOTION_DOT":7.9e-7,"MEAN_MOTION_DDOT":0},{"OBJECT_NAME":"ONEWEB-0330","OBJECT_ID":"2021-075AK","EPOCH":"2026-03-19T06:52:56.450208","MEAN_MOTION":13.16080503,"ECCENTRICITY":0.00020146,"INCLINATION":87.9167,"RA_OF_ASC_NODE":23.734,"ARG_OF_PERICENTER":73.2807,"MEAN_ANOMALY":286.8545,"EPHEMERIS_TYPE":0,"CLASSIFICATION_TYPE":"U","NORAD_CAT_ID":49108,"ELEMENT_SET_NO":999,"REV_AT_EPOCH":22178,"BSTAR":0.00031610127,"MEAN_MOTION_DOT":1.33e-6,"MEAN_MOTION_DDOT":0},{"OBJECT_NAME":"ONEWEB-0292","OBJECT_ID":"2021-083A","EPOCH":"2026-03-19T06:37:24.710016","MEAN_MOTION":13.13468402,"ECCENTRICITY":0.00015405,"INCLINATION":87.9018,"RA_OF_ASC_NODE":338.1399,"ARG_OF_PERICENTER":76.2731,"MEAN_ANOMALY":283.857,"EPHEMERIS_TYPE":0,"CLASSIFICATION_TYPE":"U","NORAD_CAT_ID":49186,"ELEMENT_SET_NO":999,"REV_AT_EPOCH":21912,"BSTAR":-0.00044317638,"MEAN_MOTION_DOT":-1.49e-6,"MEAN_MOTION_DDOT":0},{"OBJECT_NAME":"ONEWEB-0303","OBJECT_ID":"2021-083B","EPOCH":"2026-03-19T07:32:53.767680","MEAN_MOTION":13.18687071,"ECCENTRICITY":0.00016489,"INCLINATION":87.9254,"RA_OF_ASC_NODE":353.3127,"ARG_OF_PERICENTER":74.5912,"MEAN_ANOMALY":285.5402,"EPHEMERIS_TYPE":0,"CLASSIFICATION_TYPE":"U","NORAD_CAT_ID":49187,"ELEMENT_SET_NO":999,"REV_AT_EPOCH":21813,"BSTAR":0.00023464192,"MEAN_MOTION_DOT":1.05e-6,"MEAN_MOTION_DDOT":0},{"OBJECT_NAME":"ONEWEB-0306","OBJECT_ID":"2021-083C","EPOCH":"2026-03-19T07:18:38.602944","MEAN_MOTION":13.18687098,"ECCENTRICITY":0.00020306,"INCLINATION":87.9252,"RA_OF_ASC_NODE":353.2982,"ARG_OF_PERICENTER":80.8315,"MEAN_ANOMALY":279.3047,"EPHEMERIS_TYPE":0,"CLASSIFICATION_TYPE":"U","NORAD_CAT_ID":49188,"ELEMENT_SET_NO":999,"REV_AT_EPOCH":21817,"BSTAR":0.0001237278,"MEAN_MOTION_DOT":6.2e-7,"MEAN_MOTION_DDOT":0},{"OBJECT_NAME":"ONEWEB-0307","OBJECT_ID":"2021-083D","EPOCH":"2026-03-19T06:28:54.115392","MEAN_MOTION":13.13470173,"ECCENTRICITY":0.00017346,"INCLINATION":87.9017,"RA_OF_ASC_NODE":338.13,"ARG_OF_PERICENTER":77.4241,"MEAN_ANOMALY":282.7082,"EPHEMERIS_TYPE":0,"CLASSIFICATION_TYPE":"U","NORAD_CAT_ID":49189,"ELEMENT_SET_NO":999,"REV_AT_EPOCH":21912,"BSTAR":-0.00019488215,"MEAN_MOTION_DOT":-5.8e-7,"MEAN_MOTION_DDOT":0},{"OBJECT_NAME":"ONEWEB-0320","OBJECT_ID":"2021-083E","EPOCH":"2026-03-19T05:55:43.698720","MEAN_MOTION":13.18133751,"ECCENTRICITY":0.00017762,"INCLINATION":87.9245,"RA_OF_ASC_NODE":353.3347,"ARG_OF_PERICENTER":73.6074,"MEAN_ANOMALY":286.5253,"EPHEMERIS_TYPE":0,"CLASSIFICATION_TYPE":"U","NORAD_CAT_ID":49190,"ELEMENT_SET_NO":999,"REV_AT_EPOCH":21812,"BSTAR":-4.4018552e-5,"MEAN_MOTION_DOT":-4.0e-8,"MEAN_MOTION_DDOT":0},{"OBJECT_NAME":"ONEWEB-0321","OBJECT_ID":"2021-083F","EPOCH":"2026-03-19T03:01:35.152320","MEAN_MOTION":13.20770842,"ECCENTRICITY":0.00019731,"INCLINATION":87.9157,"RA_OF_ASC_NODE":292.4189,"ARG_OF_PERICENTER":89.5008,"MEAN_ANOMALY":270.6351,"EPHEMERIS_TYPE":0,"CLASSIFICATION_TYPE":"U","NORAD_CAT_ID":49191,"ELEMENT_SET_NO":999,"REV_AT_EPOCH":22494,"BSTAR":3.0559391e-5,"MEAN_MOTION_DOT":2.5e-7,"MEAN_MOTION_DDOT":0},{"OBJECT_NAME":"ONEWEB-0322","OBJECT_ID":"2021-083G","EPOCH":"2026-03-19T06:22:48.173376","MEAN_MOTION":13.13470238,"ECCENTRICITY":0.00020185,"INCLINATION":87.902,"RA_OF_ASC_NODE":338.1358,"ARG_OF_PERICENTER":90.9498,"MEAN_ANOMALY":269.1862,"EPHEMERIS_TYPE":0,"CLASSIFICATION_TYPE":"U","NORAD_CAT_ID":49192,"ELEMENT_SET_NO":999,"REV_AT_EPOCH":21911,"BSTAR":8.8907827e-5,"MEAN_MOTION_DOT":4.5e-7,"MEAN_MOTION_DDOT":0},{"OBJECT_NAME":"ONEWEB-0324","OBJECT_ID":"2021-083H","EPOCH":"2026-03-19T07:09:08.606592","MEAN_MOTION":13.18687143,"ECCENTRICITY":0.00018823,"INCLINATION":87.9252,"RA_OF_ASC_NODE":353.3053,"ARG_OF_PERICENTER":74.4802,"MEAN_ANOMALY":285.6538,"EPHEMERIS_TYPE":0,"CLASSIFICATION_TYPE":"U","NORAD_CAT_ID":49193,"ELEMENT_SET_NO":999,"REV_AT_EPOCH":21815,"BSTAR":0.00015750141,"MEAN_MOTION_DOT":7.5e-7,"MEAN_MOTION_DDOT":0},{"OBJECT_NAME":"ONEWEB-0325","OBJECT_ID":"2021-083J","EPOCH":"2026-03-19T07:13:53.901120","MEAN_MOTION":13.18687511,"ECCENTRICITY":0.00017834,"INCLINATION":87.9243,"RA_OF_ASC_NODE":353.3212,"ARG_OF_PERICENTER":80.2421,"MEAN_ANOMALY":279.8912,"EPHEMERIS_TYPE":0,"CLASSIFICATION_TYPE":"U","NORAD_CAT_ID":49194,"ELEMENT_SET_NO":999,"REV_AT_EPOCH":21816,"BSTAR":0.00011989366,"MEAN_MOTION_DOT":6.0e-7,"MEAN_MOTION_DDOT":0},{"OBJECT_NAME":"ONEWEB-0326","OBJECT_ID":"2021-083K","EPOCH":"2026-03-19T05:46:12.212832","MEAN_MOTION":13.18686581,"ECCENTRICITY":0.00015016,"INCLINATION":87.9252,"RA_OF_ASC_NODE":353.3231,"ARG_OF_PERICENTER":75.7582,"MEAN_ANOMALY":284.3717,"EPHEMERIS_TYPE":0,"CLASSIFICATION_TYPE":"U","NORAD_CAT_ID":49195,"ELEMENT_SET_NO":999,"REV_AT_EPOCH":21814,"BSTAR":0.00026778825,"MEAN_MOTION_DOT":1.18e-6,"MEAN_MOTION_DDOT":0},{"OBJECT_NAME":"ONEWEB-0327","OBJECT_ID":"2021-083L","EPOCH":"2026-03-19T05:45:47.784960","MEAN_MOTION":13.18685939,"ECCENTRICITY":0.00013648,"INCLINATION":87.9244,"RA_OF_ASC_NODE":353.3348,"ARG_OF_PERICENTER":79.6785,"MEAN_ANOMALY":280.4501,"EPHEMERIS_TYPE":0,"CLASSIFICATION_TYPE":"U","NORAD_CAT_ID":49196,"ELEMENT_SET_NO":999,"REV_AT_EPOCH":21816,"BSTAR":0.00011000639,"MEAN_MOTION_DOT":5.6e-7,"MEAN_MOTION_DDOT":0},{"OBJECT_NAME":"ONEWEB-0328","OBJECT_ID":"2021-083M","EPOCH":"2026-03-19T06:08:10.631904","MEAN_MOTION":13.13471053,"ECCENTRICITY":0.00018149,"INCLINATION":87.9035,"RA_OF_ASC_NODE":338.0992,"ARG_OF_PERICENTER":74.6665,"MEAN_ANOMALY":285.4664,"EPHEMERIS_TYPE":0,"CLASSIFICATION_TYPE":"U","NORAD_CAT_ID":49197,"ELEMENT_SET_NO":999,"REV_AT_EPOCH":21909,"BSTAR":0.00070282686,"MEAN_MOTION_DOT":2.69e-6,"MEAN_MOTION_DDOT":0}]
