ONEWEB-0318             
1 49104U 21075AF  26078.24193113  .00000046  00000+0  82831-4 0  9995
2 49104  87.9255 353.3241 0001559  74.2640 285.8664 13.18686652225318
ONEWEB-0319             
1 49105U 21075AG  26078.26498887  .00000066  00000+0  13633-3 0  9999
2 49105  87.9165  23.7244 0001321  72.7360 287.3917 13.17649658221766
ONEWEB-0323             
1 49106U 21075AH  26078.30964316  .00000017  00000+0  11663-4 0  9998
2 49106  87.9018   8.4880 0001454  58.2239 301.9031 13.12444526222764
ONEWEB-0329             
1 49107U 21075AJ  26078.27342729  .00000079  00000+0  17072-3 0  9990
2 49107  87.9165  23.7229 0001860  75.3999 284.7339 13.17648649221742
ONEWEB-0330             
1 49108U 21075AK  26078.28676447  .00000133  00000+0  31610-3 0  9994
2 49108  87.9167  23.7340 0002014  73.2807 286.8545 13.16080503221780
ONEWEB-0292             
1 49186U 21083A   26078.27598044 -.00000149  00000+0 -44318-3 0  9992
2 49186  87.9018 338.1399 0001540  76.2731 283.8570 13.13468402219125
ONEWEB-0303             
1 49187U 21083B   26078.31451120  .00000105  00000+0  23464-3 0  9990
2 49187  87.9254 353.3127 0001648  74.5912 285.5402 13.18687071218130
ONEWEB-0306             
1 49188U 21083C   26078.30461346  .00000062  00000+0  12373-3 0  9990
2 49188  87.9252 353.2982 0002030  80.8315 279.3047 13.18687098218179
ONEWEB-0307             
1 49189U 21083D   26078.27007078 -.00000058  00000+0 -19488-3 0  9996
2 49189  87.9017 338.1300 0001734  77.4241 282.7082 13.13470173219127
ONEWEB-0320             
1 49190U 21083E   26078.24703355 -.00000004  00000+0 -44019-4 0  9996
2 49190  87.9245 353.3347 0001776  73.6074 286.5253 13.18133751218124
ONEWEB-0321             
1 49191U 21083F   26078.12610130  .00000025  00000+0  30559-4 0  9997
2 49191  87.9157 292.4189 0001973  89.5008 270.6351 13.20770842224947
ONEWEB-0322             
1 49192U 21083G   26078.26583534  .00000045  00000+0  88908-4 0  9993
2 49192  87.9020 338.1358 0002018  90.9498 269.1862 13.13470238219114
ONEWEB-0324             
1 49193U 21083H   26078.29801628  .00000075  00000+0  15750-3 0  9991
2 49193  87.9252 353.3053 0001882  74.4802 285.6538 13.18687143218153
ONEWEB-0325             
1 49194U 21083J   26078.30131830  .00000060  00000+0  11989-3 0  9999
2 49194  87.9243 353.3212 0001783  80.2421 279.8912 13.18687511218164
ONEWEB-0326             
1 49195U 21083K   26078.24041913  .00000118  00000+0  26779-3 0  9992
2 49195  87.9252 353.3231 0001501  75.7582 284.3717 13.18686581218149
ONEWEB-0327             
1 49196U 21083L   26078.24013640  .00000056  00000+0  11001-3 0  9992
2 49196  87.9244 353.3348 0001364  79.6785 280.4501 13.18685939218161
ONEWEB-0328             
1 49197U 21083M   26078.25567861  .00000269  00000+0  70283-3 0  9996
2 49197  87.9035 338.0992 0001814  74.6665 285.4664 13.13471053219090
